OBJECT_NAME,OBJECT_ID,EPOCH,MEAN_MOTION,ECCENTRICITY,INCLINATION,RA_OF_ASC_NODE,ARG_OF_PERICENTER,MEAN_ANOMALY,EPHEMERIS_TYPE,CLASSIFICATION_TYPE,NORAD_CAT_ID,ELEMENT_SET_NO,REV_AT_EPOCH,BSTAR,MEAN_MOTION_DOT,MEAN_MOTION_DDOT
STARLINK-35868,2025-268Y,2026-06-05T10:58:24.318624,15.27630585,.0000615,43.0012,211.3098,284.4264,75.6519,0,U,66579,999,3138,.60453E-3,.16436E-3,0
STARLINK-35872,2025-268Z,2026-06-05T10:52:51.286368,15.27583753,.0001246,42.9995,211.2782,273.4898,86.5811,0,U,66580,999,3138,.59437E-3,.16131E-3,0
STARLINK-35744,2025-268AA,2026-06-05T10:47:18.235968,15.27627861,.0001687,42.9992,211.2507,263.4404,96.6256,0,U,66581,999,3138,.53961E-3,.14638E-3,0
STARLINK-35746,2025-268AB,2026-06-05T15:20:31.428096,15.27656668,.0001473,42.9957,210.0907,269.4984,90.5698,0,U,66582,999,3141,.72841E-3,.19883E-3,0
STARLINK-35941,2025-268AC,2026-06-05T10:32:30.094080,15.27634145,.0001424,42.9983,211.1715,266.2546,93.8143,0,U,66583,999,3138,.67633E-3,.18426E-3,0
STARLINK-35939,2025-268AD,2026-06-05T10:26:56.944320,15.27600825,.0000286,42.9956,211.1396,242.6862,117.3961,0,U,66584,999,3138,.61144E-3,.16612E-3,0
STARLINK-35963,2025-268AE,2026-06-05T10:12:21.578400,15.27657919,.0000989,42.9991,211.9363,240.7984,119.2769,0,U,66585,999,3137,.68011E-3,.18545E-3,0
STARLINK-36076,2025-270A,2026-06-05T01:48:43.462656,15.27678261,.0002346,43.0030,282.3998,278.2805,81.7780,0,U,66588,999,3107,.12265293E-2,.33746E-3,0
STARLINK-35447,2025-270B,2026-06-05T14:51:34.129728,15.27574206,.0001974,43.0014,279.6043,295.4545,64.6102,0,U,66589,999,3126,.48758E-3,.13177E-3,0
STARLINK-35429,2025-270C,2026-06-05T15:35:59.390016,15.27595868,.0001659,43.0016,279.8301,272.9256,87.1406,0,U,66590,999,3126,.11311E-2,.31011E-3,0
STARLINK-36058,2025-270D,2026-06-05T14:58:59.458656,15.27584952,.000076,43.0016,279.6371,288.1439,71.9330,0,U,66591,999,3115,.61278E-3,.16641E-3,0
STARLINK-36066,2025-270E,2026-06-05T15:17:29.113728,15.27613952,.0001566,43.0001,279.7334,259.1435,100.9241,0,U,66592,999,3105,.82625E-3,.22568E-3,0
STARLINK-36031,2025-270F,2026-06-05T14:31:14.090016,15.27587819,.0001871,43.0028,279.4922,280.0951,79.9689,0,U,66593,999,3115,.12102E-2,.33198E-3,0
STARLINK-36032,2025-270G,2026-06-05T15:13:47.114976,15.27597485,.000111,43.0005,279.7147,265.1217,94.9508,0,U,66594,999,3096,.77671E-3,.21184E-3,0
STARLINK-35711,2025-270H,2026-06-05T14:36:46.964160,15.27575684,.0001799,43.0027,279.5165,276.4715,83.5932,0,U,66595,999,3126,.12442E-2,.34131E-3,0
STARLINK-35811,2025-270J,2026-06-01T11:02:34.635840,15.27583394,.00026094,42.9969,303.4184,159.1677,200.9281,0,U,66596,999,3062,.63123191E-3,.17151E-3,0
STARLINK-35820,2025-270K,2026-06-05T15:02:41.381376,15.27571971,.0001839,43.0015,279.6561,283.3859,76.6788,0,U,66597,999,3126,.98459E-3,.26924E-3,0
STARLINK-35981,2025-270L,2026-06-05T01:41:18.996000,15.27596986,.00024389,43.0035,282.3563,272.4866,87.5707,0,U,66598,999,3092,.75191233E-3,.20498E-3,0
STARLINK-35930,2025-270M,2026-06-05T14:47:51.614304,15.27536521,.0001373,43.0012,279.5748,270.4988,89.5706,0,U,66599,999,3115,.67367E-3,.18297E-3,0
STARLINK-35980,2025-270N,2026-06-05T15:24:53.221824,15.27573594,.0000934,42.9991,279.7674,274.0361,86.0384,0,U,66600,999,3105,.53563E-4,.1212E-4,0
STARLINK-35978,2025-270P,2026-06-05T14:46:02.015040,15.27603264,.0000843,42.9992,279.5688,260.6368,99.4388,0,U,66601,999,3099,.82742E-3,.22593E-3,0
STARLINK-36050,2025-270Q,2026-06-05T05:58:06.377952,15.27568797,.000116,42.9996,281.9773,285.5389,74.5334,0,U,66602,999,3099,.76147E-3,.20744E-3,0
STARLINK-36048,2025-270R,2026-06-05T01:52:25.191840,15.27656979,.00024352,43.0039,282.4134,270.5874,89.4698,0,U,66603,999,3097,.97809975E-3,.26815E-3,0
STARLINK-36052,2025-270T,2026-06-05T15:08:13.960032,15.27588726,.0001858,42.9983,279.6763,280.3202,79.7440,0,U,66605,999,3115,.66994E-3,.18224E-3,0
STARLINK-36063,2025-270U,2026-06-05T14:33:04.861728,15.27585867,.0002315,43.0032,279.4934,286.6904,73.3693,0,U,66606,999,3115,.65759E-3,.17881E-3,0
STARLINK-35993,2025-270V,2026-06-05T15:04:31.944864,15.27602664,.0000469,43.0041,279.6625,183.1344,176.9505,0,U,66607,999,3105,.91339E-3,.24975E-3,0
STARLINK-36036,2025-270W,2026-06-05T01:54:16.511328,15.27624952,.00016118,43.0044,282.4186,294.8745,65.1939,0,U,66608,999,3091,.94596317E-3,.25896E-3,0
STARLINK-36034,2025-270X,2026-06-01T17:24:43.593120,15.27567936,.00034106,43.0023,301.9670,253.8578,106.1898,0,U,66609,999,3039,.28957402E-3,.7712E-4,0
STARLINK-35680,2025-270Y,2026-06-05T14:53:26.176704,15.27580546,.000126,42.9994,279.6015,281.4522,78.6188,0,U,66610,999,3126,.70249E-3,.19119E-3,0
