STARLINK-35868          
1 66579U 25268Y   26156.45722591  .00016436  00000+0  60453-3 0  9991
2 66579  43.0012 211.3098 0000615 284.4264  75.6519 15.27630585 31381
STARLINK-35872          
1 66580U 25268Z   26156.45337137  .00016131  00000+0  59437-3 0  9993
2 66580  42.9995 211.2782 0001246 273.4898  86.5811 15.27583753 31382
STARLINK-35744          
1 66581U 25268AA  26156.44951662  .00014638  00000+0  53961-3 0  9994
2 66581  42.9992 211.2507 0001687 263.4404  96.6256 15.27627861 31380
STARLINK-35746          
1 66582U 25268AB  26156.63925264  .00019883  00000+0  72841-3 0  9990
2 66582  42.9957 210.0907 0001473 269.4984  90.5698 15.27656668 31419
STARLINK-35941          
1 66583U 25268AC  26156.43923720  .00018426  00000+0  67633-3 0  9999
2 66583  42.9983 211.1715 0001424 266.2546  93.8143 15.27634145 31386
STARLINK-35939          
1 66584U 25268AD  26156.43538130  .00016612  00000+0  61144-3 0  9993
2 66584  42.9956 211.1396 0000286 242.6862 117.3961 15.27600825 31384
STARLINK-35963          
1 66585U 25268AE  26156.42524975  .00018545  00000+0  68011-3 0  9992
2 66585  42.9991 211.9363 0000989 240.7984 119.2769 15.27657919 31372
STARLINK-36076          
1 66588U 25270A   26156.07550304  .00033746  00000+0  12265-2 0  9993
2 66588  43.0030 282.3998 0002346 278.2805  81.7780 15.27678261 31070
STARLINK-35447          
1 66589U 25270B   26156.61914502  .00013177  00000+0  48758-3 0  9991
2 66589  43.0014 279.6043 0001974 295.4545  64.6102 15.27574206 31264
STARLINK-35429          
1 66590U 25270C   26156.64999294  .00031011  00000+0  11311-2 0  9998
2 66590  43.0016 279.8301 0001659 272.9256  87.1406 15.27595868 31260
STARLINK-36058          
1 66591U 25270D   26156.62429929  .00016641  00000+0  61278-3 0  9990
2 66591  43.0016 279.6371 0000760 288.1439  71.9330 15.27584952 31157
STARLINK-36066          
1 66592U 25270E   26156.63714252  .00022568  00000+0  82625-3 0  9992
2 66592  43.0001 279.7334 0001566 259.1435 100.9241 15.27613952 31057
STARLINK-36031          
1 66593U 25270F   26156.60502419  .00033198  00000+0  12102-2 0  9993
2 66593  43.0028 279.4922 0001871 280.0951  79.9689 15.27587819 31156
STARLINK-36032          
1 66594U 25270G   26156.63457309  .00021184  00000+0  77671-3 0  9999
2 66594  43.0005 279.7147 0001110 265.1217  94.9508 15.27597485 30964
STARLINK-35711          
1 66595U 25270H   26156.60887690  .00034131  00000+0  12442-2 0  9997
2 66595  43.0027 279.5165 0001799 276.4715  83.5932 15.27575684 31264
STARLINK-35811          
1 66596U 25270J   26152.46012310  .00017151  00000+0  63123-3 0  9993
2 66596  42.9969 303.4184 0002609 159.1677 200.9281 15.27583394 30629
STARLINK-35820          
1 66597U 25270K   26156.62686784  .00026924  00000+0  98459-3 0  9996
2 66597  43.0015 279.6561 0001839 283.3859  76.6788 15.27571971 31262
STARLINK-35981          
1 66598U 25270L   26156.07035875  .00020498  00000+0  75191-3 0  9993
2 66598  43.0035 282.3563 0002438 272.4866  87.5707 15.27596986 30928
STARLINK-35930          
1 66599U 25270M   26156.61656961  .00018297  00000+0  67367-3 0  9999
2 66599  43.0012 279.5748 0001373 270.4988  89.5706 15.27536521 31153
STARLINK-35980          
1 66600U 25270N   26156.64228266  .00001212  00000+0  53563-4 0  9991
2 66600  42.9991 279.7674 0000934 274.0361  86.0384 15.27573594 31051
STARLINK-35978          
1 66601U 25270P   26156.61530110  .00022593  00000+0  82742-3 0  9998
2 66601  42.9992 279.5688 0000843 260.6368  99.4388 15.27603264 30995
STARLINK-36050          
1 66602U 25270Q   26156.24868493  .00020744  00000+0  76147-3 0  9994
2 66602  42.9996 281.9773 0001160 285.5389  74.5334 15.27568797 30990
STARLINK-36048          
1 66603U 25270R   26156.07806935  .00026815  00000+0  97810-3 0  9994
2 66603  43.0039 282.4134 0002435 270.5874  89.4698 15.27656979 30973
STARLINK-36052          
1 66605U 25270T   26156.63071713  .00018224  00000+0  66994-3 0  9990
2 66605  42.9983 279.6763 0001858 280.3202  79.7440 15.27588726 31151
STARLINK-36063          
1 66606U 25270U   26156.60630627  .00017881  00000+0  65759-3 0  9999
2 66606  43.0032 279.4934 0002315 286.6904  73.3693 15.27585867 31157
STARLINK-35993          
1 66607U 25270V   26156.62814751  .00024975  00000+0  91339-3 0  9999
2 66607  43.0041 279.6625 0000469 183.1344 176.9505 15.27602664 31050
STARLINK-36036          
1 66608U 25270W   26156.07935777  .00025896  00000+0  94596-3 0  9992
2 66608  43.0044 282.4186 0001611 294.8745  65.1939 15.27624952 30911
STARLINK-36034          
1 66609U 25270X   26152.72550455  .00007712  00000+0  28957-3 0  9992
2 66609  43.0023 301.9670 0003410 253.8578 106.1898 15.27567936 30392
STARLINK-35680          
1 66610U 25270Y   26156.62044186  .00019119  00000+0  70249-3 0  9991
2 66610  42.9994 279.6015 0001260 281.4522  78.6188 15.27580546 31264
